start=new Date('2022-01-02T00:00:00.000Z').valueOf();
sats=[{"REV_AT_EPOCH":"4559","PERIAPSIS":"545.818","MEAN_MOTION_DOT":"0.00000759","RA_OF_ASC_NODE":"293.6178","EPHEMERIS_TYPE":"0","TLE_LINE1":"1 47878U 21021U   22001.12519164  .00000759  00000-0  69898-4 0  9999","FILE":"3255244","SEMIMAJOR_AXIS":"6925.365","DECAY_DATE":null,"OBJECT_TYPE":"PAYLOAD","COUNTRY_CODE":"US","APOAPSIS":"548.642","ECCENTRICITY":"0.00020390","LAUNCH_DATE":"2021-03-14","MEAN_ELEMENT_THEORY":"SGP4","SITE":"AFETR","OBJECT_NAME":"STARLINK-2335","OBJECT_ID":"2021-021U","MEAN_MOTION_DDOT":"0.0000000000000","EPOCH":"2022-01-01T03:00:16.557696","CLASSIFICATION_TYPE":"U","ARG_OF_PERICENTER":"47.8399","GP_ID":"192868329","CENTER_NAME":"EARTH","TLE_LINE2":"2 47878  53.0549 293.6178 0002039  47.8399 312.2763 15.06394655 45593","MEAN_ANOMALY":"312.2763","NORAD_CAT_ID":"47878","INCLINATION":"53.0549","REF_FRAME":"TEME","RCS_SIZE":"LARGE","ELEMENT_SET_NO":"999","TIME_SYSTEM":"UTC","BSTAR":"0.00006989800000","PERIOD":"95.592","MEAN_MOTION":"15.06394655"},{"MEAN_ELEMENT_THEORY":"SGP4","SITE":"AFETR","OBJECT_NAME":"STARLINK-2336","ECCENTRICITY":"0.00019480","LAUNCH_DATE":"2021-03-14","FILE":"3255244","SEMIMAJOR_AXIS":"6925.384","DECAY_DATE":null,"APOAPSIS":"548.598","COUNTRY_CODE":"US","OBJECT_TYPE":"PAYLOAD","MEAN_MOTION_DOT":"-0.00000329","PERIAPSIS":"545.900","REV_AT_EPOCH":"4579","RA_OF_ASC_NODE":"307.7458","EPHEMERIS_TYPE":"0","TLE_LINE1":"1 47879U 21021V   22001.32101415 -.00000329  00000-0 -31658-5 0  9997","BSTAR":"-0.00000316580000","PERIOD":"95.593","TIME_SYSTEM":"UTC","MEAN_MOTION":"15.06388335","INCLINATION":"53.0553","REF_FRAME":"TEME","RCS_SIZE":"LARGE","ELEMENT_SET_NO":"999","ARG_OF_PERICENTER":"53.2542","CENTER_NAME":"EARTH","GP_ID":"192869581","MEAN_ANOMALY":"306.8626","TLE_LINE2":"2 47879  53.0553 307.7458 0001948  53.2542 306.8626 15.06388335 45793","NORAD_CAT_ID":"47879","OBJECT_ID":"2021-021V","EPOCH":"2022-01-01T07:42:15.622560","MEAN_MOTION_DDOT":"0.0000000000000","CLASSIFICATION_TYPE":"U"},{"GP_ID":"192894250","CENTER_NAME":"EARTH","ARG_OF_PERICENTER":"59.1045","NORAD_CAT_ID":"47880","TLE_LINE2":"2 47880  53.0568 299.8589 0001632  59.1045 301.0104 15.06396996 45789","MEAN_ANOMALY":"301.0104","MEAN_MOTION_DDOT":"0.0000000000000","EPOCH":"2022-01-01T23:02:27.001536","OBJECT_ID":"2021-021W","CLASSIFICATION_TYPE":"U","TIME_SYSTEM":"UTC","BSTAR":"0.00014040000000","PERIOD":"95.592","MEAN_MOTION":"15.06396996","REF_FRAME":"TEME","INCLINATION":"53.0568","ELEMENT_SET_NO":"999","RCS_SIZE":"LARGE","SEMIMAJOR_AXIS":"6925.358","FILE":"3255246","OBJECT_TYPE":"PAYLOAD","COUNTRY_CODE":"US","APOAPSIS":"548.353","DECAY_DATE":null,"RA_OF_ASC_NODE":"299.8589","REV_AT_EPOCH":"4578","PERIAPSIS":"546.093","MEAN_MOTION_DOT":"0.00001810","TLE_LINE1":"1 47880U 21021W   22001.96003474  .00001810  00000-0  14040-3 0  9993","EPHEMERIS_TYPE":"0","SITE":"AFETR","MEAN_ELEMENT_THEORY":"SGP4","OBJECT_NAME":"STARLINK-2337","ECCENTRICITY":"0.00016320","LAUNCH_DATE":"2021-03-14"},{"LAUNCH_DATE":"2021-03-14","ECCENTRICITY":"0.00017780","OBJECT_NAME":"STARLINK-2339","MEAN_ELEMENT_THEORY":"SGP4","SITE":"AFETR","EPHEMERIS_TYPE":"0","TLE_LINE1":"1 47881U 21021X   22001.91674750  .00002159  00000-0  16384-3 0  9990","PERIAPSIS":"546.003","REV_AT_EPOCH":"4574","MEAN_MOTION_DOT":"0.00002159","RA_OF_ASC_NODE":"300.0310","DECAY_DATE":null,"OBJECT_TYPE":"PAYLOAD","COUNTRY_CODE":"US","APOAPSIS":"548.466","FILE":"3255246","SEMIMAJOR_AXIS":"6925.370","RCS_SIZE":"LARGE","ELEMENT_SET_NO":"999","INCLINATION":"53.0634","REF_FRAME":"TEME","MEAN_MOTION":"15.06393162","TIME_SYSTEM":"UTC","BSTAR":"0.00016384000000","PERIOD":"95.593","CLASSIFICATION_TYPE":"U","OBJECT_ID":"2021-021X","MEAN_MOTION_DDOT":"0.0000000000000","EPOCH":"2022-01-01T22:00:06.984000","TLE_LINE2":"2 47881  53.0634 300.0310 0001778  60.1160 300.0006 15.06393162 45740","MEAN_ANOMALY":"300.0006","NORAD_CAT_ID":"47881","ARG_OF_PERICENTER":"60.1160","GP_ID":"192895000","CENTER_NAME":"EARTH"},{"TIME_SYSTEM":"UTC","PERIOD":"95.592","BSTAR":"0.00006215600000","MEAN_MOTION":"15.06395655","INCLINATION":"53.0559","REF_FRAME":"TEME","RCS_SIZE":"LARGE","ELEMENT_SET_NO":"999","ARG_OF_PERICENTER":"58.8047","GP_ID":"192893748","CENTER_NAME":"EARTH","TLE_LINE2":"2 47882  53.0559 289.8632 0001745  58.8047 301.3113 15.06395655 46091","MEAN_ANOMALY":"301.3113","NORAD_CAT_ID":"47882","OBJECT_ID":"2021-021Y","MEAN_MOTION_DDOT":"0.0000000000000","EPOCH":"2022-01-01T22:59:49.929792","CLASSIFICATION_TYPE":"U","MEAN_ELEMENT_THEORY":"SGP4","SITE":"AFETR","OBJECT_NAME":"STARLINK-2340","ECCENTRICITY":"0.00017450","LAUNCH_DATE":"2021-03-14","FILE":"3255246","SEMIMAJOR_AXIS":"6925.362","DECAY_DATE":null,"OBJECT_TYPE":"PAYLOAD","COUNTRY_CODE":"US","APOAPSIS":"548.435","REV_AT_EPOCH":"4609","PERIAPSIS":"546.018","MEAN_MOTION_DOT":"0.00000644","RA_OF_ASC_NODE":"289.8632","EPHEMERIS_TYPE":"0","TLE_LINE1":"1 47882U 21021Y   22001.95821678  .00000644  00000-0  62156-4 0  9994"},{"ELEMENT_SET_NO":"999","RCS_SIZE":"MEDIUM","REF_FRAME":"TEME","INCLINATION":"53.0541","MEAN_MOTION":"15.06387110","PERIOD":"95.593","BSTAR":"-0.00005359100000","TIME_SYSTEM":"UTC","CLASSIFICATION_TYPE":"U","EPOCH":"2022-01-01T06:23:57.817824","MEAN_MOTION_DDOT":"0.0000000000000","OBJECT_ID":"2021-021Z","NORAD_CAT_ID":"47883","MEAN_ANOMALY":"305.2954","TLE_LINE2":"2 47883  53.0541 297.9860 0001876  54.8210 305.2954 15.06387110 45923","CENTER_NAME":"EARTH","GP_ID":"192869081","ARG_OF_PERICENTER":"54.8210","LAUNCH_DATE":"2021-03-14","ECCENTRICITY":"0.00018760","OBJECT_NAME":"STARLINK-2342","SITE":"AFETR","MEAN_ELEMENT_THEORY":"SGP4","TLE_LINE1":"1 47883U 21021Z   22001.26664141 -.00001080  00000-0 -53591-4 0  9999","EPHEMERIS_TYPE":"0","RA_OF_ASC_NODE":"297.9860","MEAN_MOTION_DOT":"-0.00001080","REV_AT_EPOCH":"4592","PERIAPSIS":"545.954","COUNTRY_CODE":"US","APOAPSIS":"548.552","OBJECT_TYPE":"PAYLOAD","DECAY_DATE":null,"SEMIMAJOR_AXIS":"6925.388","FILE":"3255244"},{"INCLINATION":"53.0564","REF_FRAME":"TEME","RCS_SIZE":"LARGE","ELEMENT_SET_NO":"999","TIME_SYSTEM":"UTC","BSTAR":"0.00010177000000","PERIOD":"95.592","MEAN_MOTION":"15.06396197","OBJECT_ID":"2021-021AA","MEAN_MOTION_DDOT":"0.0000000000000","EPOCH":"2022-01-01T02:48:19.880064","CLASSIFICATION_TYPE":"U","ARG_OF_PERICENTER":"58.7206","GP_ID":"192869823","CENTER_NAME":"EARTH","TLE_LINE2":"2 47884  53.0564 303.6433 0001744  58.7206 301.3954 15.06396197 45654","MEAN_ANOMALY":"301.3954","NORAD_CAT_ID":"47884","ECCENTRICITY":"0.00017440","LAUNCH_DATE":"2021-03-14","MEAN_ELEMENT_THEORY":"SGP4","SITE":"AFETR","OBJECT_NAME":"STARLINK-2343","REV_AT_EPOCH":"4565","PERIAPSIS":"546.017","MEAN_MOTION_DOT":"0.00001234","RA_OF_ASC_NODE":"303.6433","EPHEMERIS_TYPE":"0","TLE_LINE1":"1 47884U 21021AA  22001.11689676  .00001234  00000-0  10177-3 0  9995","FILE":"3255244","SEMIMAJOR_AXIS":"6925.360","DECAY_DATE":null,"OBJECT_TYPE":"PAYLOAD","APOAPSIS":"548.433","COUNTRY_CODE":"US"},{"CENTER_NAME":"EARTH","GP_ID":"192868080","ARG_OF_PERICENTER":"54.3506","NORAD_CAT_ID":"47885","MEAN_ANOMALY":"305.7655","TLE_LINE2":"2 47885  53.0559 309.2627 0001853  54.3506 305.7655 15.06385687 45728","EPOCH":"2021-12-31T23:28:38.271936","MEAN_MOTION_DDOT":"0.0000000000000","OBJECT_ID":"2021-021AB","CLASSIFICATION_TYPE":"U","PERIOD":"95.593","BSTAR":"0.00007535900000","TIME_SYSTEM":"UTC","MEAN_MOTION":"15.06385687","REF_FRAME":"TEME","INCLINATION":"53.0559","ELEMENT_SET_NO":"999","RCS_SIZE":"LARGE","SEMIMAJOR_AXIS":"6925.392","FILE":"3255244","APOAPSIS":"548.541","COUNTRY_CODE":"US","OBJECT_TYPE":"PAYLOAD","DECAY_DATE":null,"RA_OF_ASC_NODE":"309.2627","MEAN_MOTION_DOT":"0.00000841","PERIAPSIS":"545.974","REV_AT_EPOCH":"4572","TLE_LINE1":"1 47885U 21021AB  21365.97822074  .00000841  00000-0  75359-4 0  9990","EPHEMERIS_TYPE":"0","SITE":"AFETR","MEAN_ELEMENT_THEORY":"SGP4","OBJECT_NAME":"STARLINK-2344","ECCENTRICITY":"0.00018530","LAUNCH_DATE":"2021-03-14"},{"SITE":"AFETR","MEAN_ELEMENT_THEORY":"SGP4","OBJECT_NAME":"STARLINK-2345","ECCENTRICITY":"0.00017170","LAUNCH_DATE":"2021-03-14","SEMIMAJOR_AXIS":"6925.376","FILE":"3255244","APOAPSIS":"548.430","COUNTRY_CODE":"US","OBJECT_TYPE":"PAYLOAD","DECAY_DATE":null,"RA_OF_ASC_NODE":"299.2694","MEAN_MOTION_DOT":"0.00000566","REV_AT_EPOCH":"4571","PERIAPSIS":"546.052","TLE_LINE1":"1 47886U 21021AC  21365.97819295  .00000566  00000-0  56902-4 0  9999","EPHEMERIS_TYPE":"0","PERIOD":"95.593","BSTAR":"0.00005690200000","TIME_SYSTEM":"UTC","MEAN_MOTION":"15.06391007","REF_FRAME":"TEME","INCLINATION":"53.0562","ELEMENT_SET_NO":"999","RCS_SIZE":"LARGE","CENTER_NAME":"EARTH","GP_ID":"192868330","ARG_OF_PERICENTER":"55.8166","NORAD_CAT_ID":"47886","MEAN_ANOMALY":"304.2986","TLE_LINE2":"2 47886  53.0562 299.2694 0001717  55.8166 304.2986 15.06391007 45715","EPOCH":"2021-12-31T23:28:35.870880","MEAN_MOTION_DDOT":"0.0000000000000","OBJECT_ID":"2021-021AC","CLASSIFICATION_TYPE":"U"},{"ARG_OF_PERICENTER":"47.8873","GP_ID":"192869582","CENTER_NAME":"EARTH","TLE_LINE2":"2 47887  53.0539 302.6843 0001981  47.8873 312.2284 15.06386543 45690","MEAN_ANOMALY":"312.2284","NORAD_CAT_ID":"47887","OBJECT_ID":"2021-021AD","MEAN_MOTION_DDOT":"0.0000000000000","EPOCH":"2022-01-01T08:01:30.102816","CLASSIFICATION_TYPE":"U","TIME_SYSTEM":"UTC","BSTAR":"0.00011588000000","PERIOD":"95.593","MEAN_MOTION":"15.06386543","INCLINATION":"53.0539","REF_FRAME":"TEME","RCS_SIZE":"LARGE","ELEMENT_SET_NO":"999","FILE":"3255244","SEMIMAJOR_AXIS":"6925.390","DECAY_DATE":null,"OBJECT_TYPE":"PAYLOAD","COUNTRY_CODE":"US","APOAPSIS":"548.627","REV_AT_EPOCH":"4569","PERIAPSIS":"545.883","MEAN_MOTION_DOT":"0.00001444","RA_OF_ASC_NODE":"302.6843","EPHEMERIS_TYPE":"0","TLE_LINE1":"1 47887U 21021AD  22001.33437619  .00001444  00000-0  11588-3 0  9990","MEAN_ELEMENT_THEORY":"SGP4","SITE":"AFETR","OBJECT_NAME":"STARLINK-2346","ECCENTRICITY":"0.00019810","LAUNCH_DATE":"2021-03-14"}];
